[
    {
        "Altitude(m)": 562519.335416185,
        "Argument of Periapsis(deg)": 0.033114955553567506,
        "Eccentricity": 0.0,
        "Inclination(deg)": 53.0,
        "Latitude(deg)": -30.087715262030137,
        "Longitude(deg)": -139.72316434287612,
        "Mean Anomaly(deg)": -38.63283566211203,
        "RAAN(deg)": 349.9507168426401,
        "Satellite Name": "Starlink Shell 1 1556",
        "Satellite Number": 1556,
        "Semi-Major Axis(m)": 6931778.249405717,
        "Time(s)": 950
    },
    {
        "Altitude(m)": 562344.1683783322,
        "Argument of Periapsis(deg)": 0.03346353403307874,
        "Eccentricity": 0.0,
        "Inclination(deg)": 53.0,
        "Latitude(deg)": -29.63473616176809,
        "Longitude(deg)": -139.26542034006613,
        "Mean Anomaly(deg)": -38.00600445855538,
        "RAAN(deg)": 349.9501980725626,
        "Satellite Name": "Starlink Shell 1 1556",
        "Satellite Number": 1556,
        "Semi-Major Axis(m)": 6931778.249405717,
        "Time(s)": 960
    },
    {
        "Altitude(m)": 562169.2183529994,
        "Argument of Periapsis(deg)": 0.03381211251258998,
        "Eccentricity": 0.0,
        "Inclination(deg)": 53.0,
        "Latitude(deg)": -29.17985180251314,
        "Longitude(deg)": -138.81211316782696,
        "Mean Anomaly(deg)": -37.37917325499863,
        "RAAN(deg)": 349.94967930248515,
        "Satellite Name": "Starlink Shell 1 1556",
        "Satellite Number": 1556,
        "Semi-Major Axis(m)": 6931778.249405717,
        "Time(s)": 970
    },
    {
        "Altitude(m)": 561994.550622934,
        "Argument of Periapsis(deg)": 0.034160690992101214,
        "Eccentricity": 0.0,
        "Inclination(deg)": 53.0,
        "Latitude(deg)": -28.7231122293119,
        "Longitude(deg)": -138.36314037327298,
        "Mean Anomaly(deg)": -36.752342051441836,
        "RAAN(deg)": 349.9491605324077,
        "Satellite Name": "Starlink Shell 1 1556",
        "Satellite Number": 1556,
        "Semi-Major Axis(m)": 6931778.249405717,
        "Time(s)": 980
    },
    {
        "Altitude(m)": 561820.2301983805,
        "Argument of Periapsis(deg)": 0.034509269471612446,
        "Eccentricity": 0.0,
        "Inclination(deg)": 53.0,
        "Latitude(deg)": -28.264566393585675,
        "Longitude(deg)": -137.91840029004618,
        "Mean Anomaly(deg)": -36.12551084788519,
        "RAAN(deg)": 349.9486417623302,
        "Satellite Name": "Starlink Shell 1 1556",
        "Satellite Number": 1556,
        "Semi-Major Axis(m)": 6931778.249405717,
        "Time(s)": 990
    }
]